[{"OBJECT_NAME":"STARLINK-2624","OBJECT_ID":"2021-038F","EPOCH":"2026-03-09T05:44:57.836256","MEAN_MOTION":15.30187215,"ECCENTRICITY":0.00011863,"INCLINATION":53.162,"RA_OF_ASC_NODE":0.2505,"ARG_OF_PERICENTER":92.5071,"MEAN_ANOMALY":267.6066,"EPHEMERIS_TYPE":0,"CLASSIFICATION_TYPE":"U","NORAD_CAT_ID":48358,"ELEMENT_SET_NO":999,"REV_AT_EPOCH":26700,"BSTAR":-0.00012628578,"MEAN_MOTION_DOT":-4.096e-5,"MEAN_MOTION_DDOT":0},{"OBJECT_NAME":"OBJECT D","OBJECT_ID":"2024-092D","EPOCH":"2026-03-09T21:12:33.501312","MEAN_MOTION":15.33078357,"ECCENTRICITY":0.00083397,"INCLINATION":97.6418,"RA_OF_ASC_NODE":198.2302,"ARG_OF_PERICENTER":141.9853,"MEAN_ANOMALY":218.1979,"EPHEMERIS_TYPE":0,"CLASSIFICATION_TYPE":"U","NORAD_CAT_ID":59776,"ELEMENT_SET_NO":999,"REV_AT_EPOCH":10051,"BSTAR":0.00076511005,"MEAN_MOTION_DOT":0.00024443,"MEAN_MOTION_DDOT":0}]
